[{"OBJECT_NAME":"LANDSAT 9","OBJECT_ID":"2021-088A","EPOCH":"2026-03-05T17:05:22.388352","MEAN_MOTION":14.57120938,"ECCENTRICITY":0.0001117,"INCLINATION":98.1947,"RA_OF_ASC_NODE":136.5624,"ARG_OF_PERICENTER":90.5282,"MEAN_ANOMALY":269.6045,"EPHEMERIS_TYPE":0,"CLASSIFICATION_TYPE":"U","NORAD_CAT_ID":49260,"ELEMENT_SET_NO":999,"REV_AT_EPOCH":23593,"BSTAR":0.00013707,"MEAN_MOTION_DOT":5.73e-6,"MEAN_MOTION_DDOT":0},{"OBJECT_NAME":"CSG-2","OBJECT_ID":"2022-008A","EPOCH":"2026-03-05T19:03:19.825344","MEAN_MOTION":14.82154028,"ECCENTRICITY":0.0001363,"INCLINATION":97.8853,"RA_OF_ASC_NODE":249.8857,"ARG_OF_PERICENTER":78.4771,"MEAN_ANOMALY":281.6595,"EPHEMERIS_TYPE":0,"CLASSIFICATION_TYPE":"U","NORAD_CAT_ID":51444,"ELEMENT_SET_NO":999,"REV_AT_EPOCH":22127,"BSTAR":0.00010645,"MEAN_MOTION_DOT":7.95e-6,"MEAN_MOTION_DDOT":0},{"OBJECT_NAME":"GAOFEN-12 03","OBJECT_ID":"2022-069A","EPOCH":"2026-03-05T17:49:56.932320","MEAN_MOTION":14.79842687,"ECCENTRICITY":0.0002211,"INCLINATION":97.8419,"RA_OF_ASC_NODE":315.158,"ARG_OF_PERICENTER":96.2437,"MEAN_ANOMALY":263.9027,"EPHEMERIS_TYPE":0,"CLASSIFICATION_TYPE":"U","NORAD_CAT_ID":52912,"ELEMENT_SET_NO":999,"REV_AT_EPOCH":19931,"BSTAR":0.00022274,"MEAN_MOTION_DOT":1.628e-5,"MEAN_MOTION_DDOT":0},{"OBJECT_NAME":"SWOT","OBJECT_ID":"2022-173A","EPOCH":"2026-03-05T17:41:06.399168","MEAN_MOTION":14.0016885,"ECCENTRICITY":5.28e-5,"INCLINATION":77.6119,"RA_OF_ASC_NODE":174.9556,"ARG_OF_PERICENTER":269.5993,"MEAN_ANOMALY":90.5098,"EPHEMERIS_TYPE":0,"CLASSIFICATION_TYPE":"U","NORAD_CAT_ID":54754,"ELEMENT_SET_NO":999,"REV_AT_EPOCH":16467,"BSTAR":2.5936e-5,"MEAN_MOTION_DOT":3.6e-7,"MEAN_MOTION_DDOT":0},{"OBJECT_NAME":"GAOFEN-12 04","OBJECT_ID":"2023-123A","EPOCH":"2026-03-05T18:31:42.203136","MEAN_MOTION":14.79990487,"ECCENTRICITY":0.000169,"INCLINATION":97.9131,"RA_OF_ASC_NODE":344.2919,"ARG_OF_PERICENTER":77.011,"MEAN_ANOMALY":283.1291,"EPHEMERIS_TYPE":0,"CLASSIFICATION_TYPE":"U","NORAD_CAT_ID":57654,"ELEMENT_SET_NO":999,"REV_AT_EPOCH":13733,"BSTAR":0.0002592,"MEAN_MOTION_DOT":1.909e-5,"MEAN_MOTION_DDOT":0},{"OBJECT_NAME":"PARS 1","OBJECT_ID":"2024-039Q","EPOCH":"2026-03-05T18:57:43.324992","MEAN_MOTION":15.43300962,"ECCENTRICITY":0.0011812,"INCLINATION":97.475,"RA_OF_ASC_NODE":42.6851,"ARG_OF_PERICENTER":121.9763,"MEAN_ANOMALY":238.2634,"EPHEMERIS_TYPE":0,"CLASSIFICATION_TYPE":"U","NORAD_CAT_ID":59065,"ELEMENT_SET_NO":999,"REV_AT_EPOCH":11268,"BSTAR":0.00035387,"MEAN_MOTION_DOT":0.00015715,"MEAN_MOTION_DDOT":0},{"OBJECT_NAME":"RESURS-P 4","OBJECT_ID":"2024-061A","EPOCH":"2026-03-05T18:19:50.697408","MEAN_MOTION":15.32885314,"ECCENTRICITY":0.0002663,"INCLINATION":97.2656,"RA_OF_ASC_NODE":14.4919,"ARG_OF_PERICENTER":63.2617,"MEAN_ANOMALY":296.8898,"EPHEMERIS_TYPE":0,"CLASSIFICATION_TYPE":"U","NORAD_CAT_ID":59371,"ELEMENT_SET_NO":999,"REV_AT_EPOCH":10792,"BSTAR":0.00017256,"MEAN_MOTION_DOT":5.404e-5,"MEAN_MOTION_DDOT":0},{"OBJECT_NAME":"LEGION 1","OBJECT_ID":"2024-081A","EPOCH":"2026-03-05T17:06:30.883680","MEAN_MOTION":15.17465017,"ECCENTRICITY":0.0005396,"INCLINATION":97.5078,"RA_OF_ASC_NODE":143.645,"ARG_OF_PERICENTER":33.1022,"MEAN_ANOMALY":327.0548,"EPHEMERIS_TYPE":0,"CLASSIFICATION_TYPE":"U","NORAD_CAT_ID":59625,"ELEMENT_SET_NO":999,"REV_AT_EPOCH":10185,"BSTAR":0.00031713,"MEAN_MOTION_DOT":6.285e-5,"MEAN_MOTION_DDOT":0},{"OBJECT_NAME":"LEGION 2","OBJECT_ID":"2024-081B","EPOCH":"2026-03-05T17:58:57.074016","MEAN_MOTION":15.1651783,"ECCENTRICITY":0.0010563,"INCLINATION":97.508,"RA_OF_ASC_NODE":143.7637,"ARG_OF_PERICENTER":359.2689,"MEAN_ANOMALY":0.8526,"EPHEMERIS_TYPE":0,"CLASSIFICATION_TYPE":"U","NORAD_CAT_ID":59626,"ELEMENT_SET_NO":999,"REV_AT_EPOCH":10186,"BSTAR":0.00032008,"MEAN_MOTION_DOT":6.18e-5,"MEAN_MOTION_DDOT":0},{"OBJECT_NAME":"ALOS-4 (DAICHI-4)","OBJECT_ID":"2024-123A","EPOCH":"2026-03-05T17:56:57.836832","MEAN_MOTION":14.79466114,"ECCENTRICITY":0.0001507,"INCLINATION":97.9196,"RA_OF_ASC_NODE":163.4045,"ARG_OF_PERICENTER":102.1213,"MEAN_ANOMALY":258.0168,"EPHEMERIS_TYPE":0,"CLASSIFICATION_TYPE":"U","NORAD_CAT_ID":60182,"ELEMENT_SET_NO":999,"REV_AT_EPOCH":9058,"BSTAR":0.00012322,"MEAN_MOTION_DOT":8.69e-6,"MEAN_MOTION_DDOT":0},{"OBJECT_NAME":"LEGION 3","OBJECT_ID":"2024-146A","EPOCH":"2026-03-05T18:57:32.030784","MEAN_MOTION":15.16098314,"ECCENTRICITY":0.0013759,"INCLINATION":45.0007,"RA_OF_ASC_NODE":224.8296,"ARG_OF_PERICENTER":299.2421,"MEAN_ANOMALY":60.7082,"EPHEMERIS_TYPE":0,"CLASSIFICATION_TYPE":"U","NORAD_CAT_ID":60452,"ELEMENT_SET_NO":999,"REV_AT_EPOCH":8633,"BSTAR":0.00038578,"MEAN_MOTION_DOT":7.314e-5,"MEAN_MOTION_DDOT":0},{"OBJECT_NAME":"LEGION 4","OBJECT_ID":"2024-146B","EPOCH":"2026-03-05T17:20:11.554944","MEAN_MOTION":15.16154075,"ECCENTRICITY":0.0009396,"INCLINATION":45.0034,"RA_OF_ASC_NODE":317.0435,"ARG_OF_PERICENTER":79.6013,"MEAN_ANOMALY":280.5924,"EPHEMERIS_TYPE":0,"CLASSIFICATION_TYPE":"U","NORAD_CAT_ID":60453,"ELEMENT_SET_NO":999,"REV_AT_EPOCH":8517,"BSTAR":0.00035144,"MEAN_MOTION_DOT":6.642e-5,"MEAN_MOTION_DDOT":0},{"OBJECT_NAME":"SENTINEL-2C","OBJECT_ID":"2024-157A","EPOCH":"2026-03-05T16:13:30.609408","MEAN_MOTION":14.30810321,"ECCENTRICITY":9.93e-5,"INCLINATION":98.5682,"RA_OF_ASC_NODE":140.9431,"ARG_OF_PERICENTER":106.4018,"MEAN_ANOMALY":253.7274,"EPHEMERIS_TYPE":0,"CLASSIFICATION_TYPE":"U","NORAD_CAT_ID":60989,"ELEMENT_SET_NO":999,"REV_AT_EPOCH":7818,"BSTAR":8.9398e-5,"MEAN_MOTION_DOT":1.91e-6,"MEAN_MOTION_DDOT":0},{"OBJECT_NAME":"IONOSFERA-M 1","OBJECT_ID":"2024-199A","EPOCH":"2026-03-05T17:50:51.587232","MEAN_MOTION":14.22734474,"ECCENTRICITY":0.0002102,"INCLINATION":98.7333,"RA_OF_ASC_NODE":298.9225,"ARG_OF_PERICENTER":81.6491,"MEAN_ANOMALY":278.4925,"EPHEMERIS_TYPE":0,"CLASSIFICATION_TYPE":"U","NORAD_CAT_ID":61735,"ELEMENT_SET_NO":999,"REV_AT_EPOCH":11299,"BSTAR":6.2009e-5,"MEAN_MOTION_DOT":9.5e-7,"MEAN_MOTION_DDOT":0},{"OBJECT_NAME":"IONOSFERA-M 2","OBJECT_ID":"2024-199B","EPOCH":"2026-03-05T18:40:32.979936","MEAN_MOTION":14.22736943,"ECCENTRICITY":2.19e-5,"INCLINATION":98.7331,"RA_OF_ASC_NODE":298.8682,"ARG_OF_PERICENTER":87.8444,"MEAN_ANOMALY":272.2759,"EPHEMERIS_TYPE":0,"CLASSIFICATION_TYPE":"U","NORAD_CAT_ID":61736,"ELEMENT_SET_NO":999,"REV_AT_EPOCH":11612,"BSTAR":6.8049e-5,"MEAN_MOTION_DOT":1.08e-6,"MEAN_MOTION_DDOT":0},{"OBJECT_NAME":"BIOMASS","OBJECT_ID":"2025-090A","EPOCH":"2026-03-05T12:43:14.043360","MEAN_MOTION":14.67534153,"ECCENTRICITY":0.0001206,"INCLINATION":98.0739,"RA_OF_ASC_NODE":253.3392,"ARG_OF_PERICENTER":85.676,"MEAN_ANOMALY":274.4582,"EPHEMERIS_TYPE":0,"CLASSIFICATION_TYPE":"U","NORAD_CAT_ID":63772,"ELEMENT_SET_NO":999,"REV_AT_EPOCH":4548,"BSTAR":8.7572e-5,"MEAN_MOTION_DOT":4.49e-6,"MEAN_MOTION_DDOT":0},{"OBJECT_NAME":"GOSAT-GW (IBUKI GW)","OBJECT_ID":"2025-141A","EPOCH":"2026-03-05T18:12:55.851264","MEAN_MOTION":14.67568736,"ECCENTRICITY":0.0001434,"INCLINATION":98.0501,"RA_OF_ASC_NODE":3.8001,"ARG_OF_PERICENTER":83.583,"MEAN_ANOMALY":276.5538,"EPHEMERIS_TYPE":0,"CLASSIFICATION_TYPE":"U","NORAD_CAT_ID":64694,"ELEMENT_SET_NO":999,"REV_AT_EPOCH":3667,"BSTAR":0.0002587,"MEAN_MOTION_DOT":1.42e-5,"MEAN_MOTION_DDOT":0}]
