LANDSAT 9               
1 49260U 21088A   26064.71206468  .00000573  00000+0  13707-3 0  9997
2 49260  98.1947 136.5624 0001117  90.5282 269.6045 14.57120938235938
CSG-2                   
1 51444U 22008A   26064.79397946  .00000795  00000+0  10645-3 0  9991
2 51444  97.8853 249.8857 0001363  78.4771 281.6595 14.82154028221275
GAOFEN-12 03            
1 52912U 22069A   26064.74302005  .00001628  00000+0  22274-3 0  9993
2 52912  97.8419 315.1580 0002211  96.2437 263.9027 14.79842687199317
SWOT                    
1 54754U 22173A   26064.73687962  .00000036  00000+0  25936-4 0  9993
2 54754  77.6119 174.9556 0000528 269.5993  90.5098 14.00168850164671
GAOFEN-12 04            
1 57654U 23123A   26064.77201624  .00001909  00000+0  25920-3 0  9994
2 57654  97.9131 344.2919 0001690  77.0110 283.1291 14.79990487137334
PARS 1                  
1 59065U 24039Q   26064.79008478  .00015715  00000+0  35387-3 0  9991
2 59065  97.4750  42.6851 0011812 121.9763 238.2634 15.43300962112686
RESURS-P 4              
1 59371U 24061A   26064.76378122  .00005404  00000+0  17256-3 0  9998
2 59371  97.2656  14.4919 0002663  63.2617 296.8898 15.32885314107921
LEGION 1                
1 59625U 24081A   26064.71285745  .00006285  00000+0  31713-3 0  9997
2 59625  97.5078 143.6450 0005396  33.1022 327.0548 15.17465017101853
LEGION 2                
1 59626U 24081B   26064.74927169  .00006180  00000+0  32008-3 0  9996
2 59626  97.5080 143.7637 0010563 359.2689   0.8526 15.16517830101861
ALOS-4 (DAICHI-4)       
1 60182U 24123A   26064.74789163  .00000869  00000+0  12322-3 0  9997
2 60182  97.9196 163.4045 0001507 102.1213 258.0168 14.79466114 90581
LEGION 3                
1 60452U 24146A   26064.78995406  .00007314  00000+0  38578-3 0  9998
2 60452  45.0007 224.8296 0013759 299.2421  60.7082 15.16098314 86333
LEGION 4                
1 60453U 24146B   26064.72235596  .00006642  00000+0  35144-3 0  9999
2 60453  45.0034 317.0435 0009396  79.6013 280.5924 15.16154075 85178
SENTINEL-2C             
1 60989U 24157A   26064.67604872  .00000191  00000+0  89398-4 0  9990
2 60989  98.5682 140.9431 0000993 106.4018 253.7274 14.30810321 78182
IONOSFERA-M 1           
1 61735U 24199A   26064.74365263  .00000095  00000+0  62009-4 0  9995
2 61735  98.7333 298.9225 0002102  81.6491 278.4925 14.22734474112995
IONOSFERA-M 2           
1 61736U 24199B   26064.77815949  .00000108  00000+0  68049-4 0  9995
2 61736  98.7331 298.8682 0000219  87.8444 272.2759 14.22736943116122
BIOMASS                 
1 63772U 25090A   26064.53002365  .00000449  00000+0  87572-4 0  9992
2 63772  98.0739 253.3392 0001206  85.6760 274.4582 14.67534153 45483
GOSAT-GW (IBUKI GW)     
1 64694U 25141A   26064.75897976  .00001420  00000+0  25870-3 0  9999
2 64694  98.0501   3.8001 0001434  83.5830 276.5538 14.67568736 36676
